[{"OBJECT_NAME":"SATGUS","OBJECT_ID":"2025-009DJ","EPOCH":"2026-03-09T16:57:39.644640","MEAN_MOTION":14.99840473,"ECCENTRICITY":0.00056702,"INCLINATION":97.7097,"RA_OF_ASC_NODE":150.9679,"ARG_OF_PERICENTER":96.3538,"MEAN_ANOMALY":263.8332,"EPHEMERIS_TYPE":0,"CLASSIFICATION_TYPE":"U","NORAD_CAT_ID":62713,"ELEMENT_SET_NO":999,"REV_AT_EPOCH":6264,"BSTAR":0.00076063433,"MEAN_MOTION_DOT":9.37e-5,"MEAN_MOTION_DDOT":0},{"OBJECT_NAME":"STARLINK-35958","OBJECT_ID":"2025-280B","EPOCH":"2026-03-09T22:33:13.781376","MEAN_MOTION":14.98325387,"ECCENTRICITY":0.00026185,"INCLINATION":70.0023,"RA_OF_ASC_NODE":333.813,"ARG_OF_PERICENTER":271.2816,"MEAN_ANOMALY":88.8043,"EPHEMERIS_TYPE":0,"CLASSIFICATION_TYPE":"U","NORAD_CAT_ID":66822,"ELEMENT_SET_NO":999,"REV_AT_EPOCH":1611,"BSTAR":0.00027043095,"MEAN_MOTION_DOT":3.135e-5,"MEAN_MOTION_DDOT":0}]
